{"type": "FeatureCollection", "features": [ {"type": "Feature", "properties": {"norad_id": 37867, "name": "COSMOS 2476 (744)", "group": "gnss", "lat": -26.62154346346671, "lon": 65.56641869787026, "alt_km": 19139.703759610242, "timestamp": "2025-12-19T04:59:48.547791+00:00", "meta": {"OBJECT_NAME": "COSMOS 2476 (744)", "OBJECT_ID": "2011-064A", "EPOCH": "2025-12-18T07:35:13.446240", "MEAN_MOTION": 2.13103876, "ECCENTRICITY": 0.00242895, "INCLINATION": 65.1659, "RA_OF_ASC_NODE": 78.9826, "ARG_OF_PERICENTER": 234.6288, "MEAN_ANOMALY": 131.1641, "EPHEMERIS_TYPE": 0, "CLASSIFICATION_TYPE": "U", "NORAD_CAT_ID": 37867, "ELEMENT_SET_NO": 999, "REV_AT_EPOCH": 10991, "BSTAR": 0, "MEAN_MOTION_DOT": -4e-07, "MEAN_MOTION_DDOT": 0}, "tle": {"line1": "1 37867U 11064A   25352.31612785 -.00000040  00000+0  00000+0 0  9996", "line2": "2 37867  65.1659  78.9826 0024289 234.6288 131.1641  2.13103876109911"}}, "geometry": {"type": "Point", "coordinates": [65.56641869787026, -26.62154346346671]}}, {"type": "Feature", "properties": {"norad_id": 37868, "name": "COSMOS 2477 (745)", "group": "gnss", "lat": 26.23194158683953, "lon": -114.12150925596943, "alt_km": 19121.103690451426, "timestamp": "2025-12-19T04:59:48.547804+00:00", "meta": {"OBJECT_NAME": "COSMOS 2477 (745)", "OBJECT_ID": "2011-064B", "EPOCH": "2025-12-18T12:02:16.818720", "MEAN_MOTION": 2.13102921, "ECCENTRICITY": 0.00212144, "INCLINATION": 65.1723, "RA_OF_ASC_NODE": 79.0538, "ARG_OF_PERICENTER": 234.8854, "MEAN_ANOMALY": 94.0943, "EPHEMERIS_TYPE": 0, "CLASSIFICATION_TYPE": "U", "NORAD_CAT_ID": 37868, "ELEMENT_SET_NO": 999, "REV_AT_EPOCH": 10990, "BSTAR": 0, "MEAN_MOTION_DOT": -3.8e-07, "MEAN_MOTION_DDOT": 0}, "tle": {"line1": "1 37868U 11064B   25352.50158355 -.00000038  00000+0  00000+0 0  9993", "line2": "2 37868  65.1723  79.0538 0021214 234.8854  94.0943  2.13102921109903"}}, "geometry": {"type": "Point", "coordinates": [-114.12150925596943, 26.23194158683953]}}, {"type": "Feature", "properties": {"norad_id": 37869, "name": "COSMOS 2475 (743)", "group": "gnss", "lat": 60.342644191602744, "lon": -155.16484041396404, "alt_km": 19176.3583416743, "timestamp": "2025-12-19T04:59:48.547816+00:00", "meta": {"OBJECT_NAME": "COSMOS 2475 (743)", "OBJECT_ID": "2011-064C", "EPOCH": "2025-12-18T05:19:14.657088", "MEAN_MOTION": 2.13101609, "ECCENTRICITY": 0.0026433, "INCLINATION": 65.1789, "RA_OF_ASC_NODE": 79.0834, "ARG_OF_PERICENTER": 248.8457, "MEAN_ANOMALY": 181.3342, "EPHEMERIS_TYPE": 0, "CLASSIFICATION_TYPE": "U", "NORAD_CAT_ID": 37869, "ELEMENT_SET_NO": 999, "REV_AT_EPOCH": 10991, "BSTAR": 0, "MEAN_MOTION_DOT": -4.1e-07, "MEAN_MOTION_DDOT": 0}, "tle": {"line1": "1 37869U 11064C   25352.22169742 -.00000041  00000+0  00000+0 0  9999", "line2": "2 37869  65.1789  79.0834 0026433 248.8457 181.3342  2.13101609109913"}}, "geometry": {"type": "Point", "coordinates": [-155.16484041396404, 60.342644191602744]}}, {"type": "Feature", "properties": {"norad_id": 37948, "name": "BEIDOU-2 IGSO-5 (C10)", "group": "gnss", "lat": -12.104686335083777, "lon": -97.35252853825266, "alt_km": 36020.60769372953, "timestamp": "2025-12-19T04:59:48.547828+00:00", "meta": {"OBJECT_NAME": "BEIDOU-2 IGSO-5 (C10)", "OBJECT_ID": "2011-073A", "EPOCH": "2025-12-18T16:23:51.533376", "MEAN_MOTION": 1.00290152, "ECCENTRICITY": 0.01099443, "INCLINATION": 48.0091, "RA_OF_ASC_NODE": 273.7856, "ARG_OF_PERICENTER": 222.3449, "MEAN_ANOMALY": 290.7013, "EPHEMERIS_TYPE": 0, "CLASSIFICATION_TYPE": "U", "NORAD_CAT_ID": 37948, "ELEMENT_SET_NO": 999, "REV_AT_EPOCH": 5132, "BSTAR": 0, "MEAN_MOTION_DOT": -1.7e-06, "MEAN_MOTION_DDOT": 0}, "tle": {"line1": "1 37948U 11073A   25352.68323534 -.00000170  00000+0  00000+0 0  9991", "line2": "2 37948  48.0091 273.7856 0109944 222.3449 290.7013  1.00290152 51329"}}, "geometry": {"type": "Point", "coordinates": [-97.35252853825266, -12.104686335083777]}}, {"type": "Feature", "properties": {"norad_id": 37951, "name": "LUCH 5A (SDCM/PRN 140)", "group": "gnss", "lat": -7.974507640321764, "lon": -30.016771520886955, "alt_km": 35778.603620732116, "timestamp": "2025-12-19T04:59:48.547840+00:00", "meta": {"OBJECT_NAME": "LUCH 5A (SDCM/PRN 140)", "OBJECT_ID": "2011-074B", "EPOCH": "2025-12-18T22:39:00.862272", "MEAN_MOTION": 1.00269042, "ECCENTRICITY": 0.00050851, "INCLINATION": 8.2948, "RA_OF_ASC_NODE": 76.4925, "ARG_OF_PERICENTER": 189.1634, "MEAN_ANOMALY": 328.979, "EPHEMERIS_TYPE": 0, "CLASSIFICATION_TYPE": "U", "NORAD_CAT_ID": 37951, "ELEMENT_SET_NO": 999, "REV_AT_EPOCH": 5124, "BSTAR": 0, "MEAN_MOTION_DOT": -3.1e-07, "MEAN_MOTION_DDOT": 0}, "tle": {"line1": "1 37951U 11074B   25352.94375998 -.00000031  00000+0  00000+0 0  9992", "line2": "2 37951   8.2948  76.4925 0005085 189.1634 328.9790  1.00269042 51245"}}, "geometry": {"type": "Point", "coordinates": [-30.016771520886955, -7.974507640321764]}}, {"type": "Feature", "properties": {"norad_id": 38091, "name": "BEIDOU-2 G5 (C05)", "group": "gnss", "lat": 1.4972671147455865, "lon": -138.31764393547022, "alt_km": 35777.23056334345, "timestamp": "2025-12-19T04:59:48.547852+00:00", "meta": {"OBJECT_NAME": "BEIDOU-2 G5 (C05)", "OBJECT_ID": "2012-008A", "EPOCH": "2025-12-18T20:25:21.161568", "MEAN_MOTION": 1.00268356, "ECCENTRICITY": 0.00129713, "INCLINATION": 3.1239, "RA_OF_ASC_NODE": 70.6894, "ARG_OF_PERICENTER": 231.2316, "MEAN_ANOMALY": 150.9156, "EPHEMERIS_TYPE": 0, "CLASSIFICATION_TYPE": "U", "NORAD_CAT_ID": 38091, "ELEMENT_SET_NO": 999, "REV_AT_EPOCH": 5056, "BSTAR": 0, "MEAN_MOTION_DOT": 7.9e-07, "MEAN_MOTION_DDOT": 0}, "tle": {"line1": "1 38091U 12008A   25352.85093937  .00000079  00000+0  00000+0 0  9997", "line2": "2 38091   3.1239  70.6894 0012971 231.2316 150.9156  1.00268356 50567"}}, "geometry": {"type": "Point", "coordinates": [-138.31764393547022, 1.4972671147455865]}}, {"type": "Feature", "properties": {"norad_id": 38250, "name": "BEIDOU-2 M3 (C11)", "group": "gnss", "lat": -49.61003728129976, "lon": -101.76508110726905, "alt_km": 21469.410170161827, "timestamp": "2025-12-19T04:59:48.547864+00:00", "meta": {"OBJECT_NAME": "BEIDOU-2 M3 (C11)", "OBJECT_ID": "2012-018A", "EPOCH": "2025-12-18T05:36:36.842400", "MEAN_MOTION": 1.86230021, "ECCENTRICITY": 0.00242148, "INCLINATION": 55.9152, "RA_OF_ASC_NODE": 310.9725, "ARG_OF_PERICENTER": 274.7921, "MEAN_ANOMALY": 84.917, "EPHEMERIS_TYPE": 0, "CLASSIFICATION_TYPE": "U", "NORAD_CAT_ID": 38250, "ELEMENT_SET_NO": 999, "REV_AT_EPOCH": 9257, "BSTAR": 0, "MEAN_MOTION_DOT": -8.6e-07, "MEAN_MOTION_DDOT": 0}, "tle": {"line1": "1 38250U 12018A   25352.23375975 -.00000086  00000+0  00000+0 0  9991", "line2": "2 38250  55.9152 310.9725 0024214 274.7921  84.9170  1.86230021 92574"}}, "geometry": {"type": "Point", "coordinates": [-101.76508110726905, -49.61003728129976]}}, {"type": "Feature", "properties": {"norad_id": 38251, "name": "BEIDOU-2 M4 (C12)", "group": "gnss", "lat": -17.37865328540879, "lon": -62.126818128347, "alt_km": 21509.311491901877, "timestamp": "2025-12-19T04:59:48.547875+00:00", "meta": {"OBJECT_NAME": "BEIDOU-2 M4 (C12)", "OBJECT_ID": "2012-018B", "EPOCH": "2025-12-18T03:58:46.817760", "MEAN_MOTION": 1.86229697, "ECCENTRICITY": 0.00154218, "INCLINATION": 55.8167, "RA_OF_ASC_NODE": 310.2031, "ARG_OF_PERICENTER": 278.3297, "MEAN_ANOMALY": 81.4813, "EPHEMERIS_TYPE": 0, "CLASSIFICATION_TYPE": "U", "NORAD_CAT_ID": 38251, "ELEMENT_SET_NO": 999, "REV_AT_EPOCH": 9257, "BSTAR": 0, "MEAN_MOTION_DOT": -8.6e-07, "MEAN_MOTION_DDOT": 0}, "tle": {"line1": "1 38251U 12018B   25352.16581965 -.00000086  00000+0  00000+0 0  9992", "line2": "2 38251  55.8167 310.2031 0015421 278.3297  81.4813  1.86229697 92572"}}, "geometry": {"type": "Point", "coordinates": [-62.126818128347, -17.37865328540879]}}, {"type": "Feature", "properties": {"norad_id": 38652, "name": "SES-5 (EGNOS/PRN 136)", "group": "gnss", "lat": -0.03685920056437281, "lon": 167.9507718883544, "alt_km": 35787.25397406352, "timestamp": "2025-12-19T04:59:48.547888+00:00", "meta": {"OBJECT_NAME": "SES-5 (EGNOS/PRN 136)", "OBJECT_ID": "2012-036A", "EPOCH": "2025-12-18T13:19:11.535168", "MEAN_MOTION": 1.00270056, "ECCENTRICITY": 0.00018187, "INCLINATION": 0.0555, "RA_OF_ASC_NODE": 307.3887, "ARG_OF_PERICENTER": 315.9373, "MEAN_ANOMALY": 28.8626, "EPHEMERIS_TYPE": 0, "CLASSIFICATION_TYPE": "U", "NORAD_CAT_ID": 38652, "ELEMENT_SET_NO": 999, "REV_AT_EPOCH": 4264, "BSTAR": 0, "MEAN_MOTION_DOT": 5.9e-07, "MEAN_MOTION_DDOT": 0}, "tle": {"line1": "1 38652U 12036A   25352.55499462  .00000059  00000+0  00000+0 0  9999", "line2": "2 38652   0.0555 307.3887 0001818 315.9373  28.8626  1.00270056 42645"}}, "geometry": {"type": "Point", "coordinates": [167.9507718883544, -0.03685920056437281]}}, {"type": "Feature", "properties": {"norad_id": 38775, "name": "BEIDOU-2 M6 (C14)", "group": "gnss", "lat": 6.086025792827569, "lon": -115.19300473649214, "alt_km": 21558.89780602675, "timestamp": "2025-12-19T04:59:48.547901+00:00", "meta": {"OBJECT_NAME": "BEIDOU-2 M6 (C14)", "OBJECT_ID": "2012-050B", "EPOCH": "2025-12-18T09:55:40.044288", "MEAN_MOTION": 1.8623091, "ECCENTRICITY": 0.00113703, "INCLINATION": 56.3831, "RA_OF_ASC_NODE": 68.8791, "ARG_OF_PERICENTER": 343.3858, "MEAN_ANOMALY": 16.6071, "EPHEMERIS_TYPE": 0, "CLASSIFICATION_TYPE": "U", "NORAD_CAT_ID": 38775, "ELEMENT_SET_NO": 999, "REV_AT_EPOCH": 8994, "BSTAR": 0, "MEAN_MOTION_DOT": -6.3e-07, "MEAN_MOTION_DDOT": 0}, "tle": {"line1": "1 38775U 12050B   25352.41365792 -.00000063  00000+0  00000+0 0  9990", "line2": "2 38775  56.3831  68.8791 0011370 343.3858  16.6071  1.86230910 89944"}}, "geometry": {"type": "Point", "coordinates": [-115.19300473649214, 6.086025792827569]}}]}